CCSDS_OMM_VERS = 2.0
CREATION_DATE  = 
ORIGINATOR     = 

OBJECT_NAME    = SOYUZ-MS 28
OBJECT_ID      = 2025-275A
CENTER_NAME    = EARTH
REF_FRAME      = TEME
TIME_SYSTEM    = UTC
MEAN_ELEMENT_THEORY = SGP/SGP4

EPOCH          = 2025-12-16T02:06:50.626944
MEAN_MOTION    = 15.49613604
ECCENTRICITY   = .00031739
INCLINATION    = 51.6306
RA_OF_ASC_NODE = 125.8981
ARG_OF_PERICENTER = 255.6781
MEAN_ANOMALY   = 104.3856

EPHEMERIS_TYPE = 0
CLASSIFICATION_TYPE = U
NORAD_CAT_ID   = 66664
ELEMENT_SET_NO = 999
REV_AT_EPOCH   = 128
BSTAR          = .12170727E-3
MEAN_MOTION_DOT = .6404E-4
MEAN_MOTION_DDOT = 0

CCSDS_OMM_VERS = 2.0
CREATION_DATE  = 
ORIGINATOR     = 

OBJECT_NAME    = 1998-067XS
OBJECT_ID      = 1998-067XS
CENTER_NAME    = EARTH
REF_FRAME      = TEME
TIME_SYSTEM    = UTC
MEAN_ELEMENT_THEORY = SGP/SGP4

EPOCH          = 2025-12-15T16:39:04.886784
MEAN_MOTION    = 15.50732342
ECCENTRICITY   = .00032898
INCLINATION    = 51.6303
RA_OF_ASC_NODE = 127.7667
ARG_OF_PERICENTER = 216.5725
MEAN_ANOMALY   = 143.5040

EPHEMERIS_TYPE = 0
CLASSIFICATION_TYPE = U
NORAD_CAT_ID   = 66906
ELEMENT_SET_NO = 999
REV_AT_EPOCH   = 207
BSTAR          = .35286566E-3
MEAN_MOTION_DOT = .20263E-3
MEAN_MOTION_DDOT = 0

CCSDS_OMM_VERS = 2.0
CREATION_DATE  = 
ORIGINATOR     = 

OBJECT_NAME    = 1998-067XT
OBJECT_ID      = 1998-067XT
CENTER_NAME    = EARTH
REF_FRAME      = TEME
TIME_SYSTEM    = UTC
MEAN_ELEMENT_THEORY = SGP/SGP4

EPOCH          = 2025-12-15T19:37:52.461984
MEAN_MOTION    = 15.51845045
ECCENTRICITY   = .00041213
INCLINATION    = 51.6296
RA_OF_ASC_NODE = 127.0953
ARG_OF_PERICENTER = 244.2963
MEAN_ANOMALY   = 115.7601

EPHEMERIS_TYPE = 0
CLASSIFICATION_TYPE = U
NORAD_CAT_ID   = 66907
ELEMENT_SET_NO = 999
REV_AT_EPOCH   = 209
BSTAR          = .82636885E-3
MEAN_MOTION_DOT = .5023E-3
MEAN_MOTION_DDOT = 0

CCSDS_OMM_VERS = 2.0
CREATION_DATE  = 
ORIGINATOR     = 

OBJECT_NAME    = 1998-067XU
OBJECT_ID      = 1998-067XU
CENTER_NAME    = EARTH
REF_FRAME      = TEME
TIME_SYSTEM    = UTC
MEAN_ELEMENT_THEORY = SGP/SGP4

EPOCH          = 2025-12-15T18:04:25.292064
MEAN_MOTION    = 15.51929885
ECCENTRICITY   = .00042378
INCLINATION    = 51.6291
RA_OF_ASC_NODE = 127.4116
ARG_OF_PERICENTER = 243.4196
MEAN_ANOMALY   = 116.6360

EPHEMERIS_TYPE = 0
CLASSIFICATION_TYPE = U
NORAD_CAT_ID   = 66908
ELEMENT_SET_NO = 999
REV_AT_EPOCH   = 208
BSTAR          = .81150303E-3
MEAN_MOTION_DOT = .49466E-3
MEAN_MOTION_DDOT = 0

CCSDS_OMM_VERS = 2.0
CREATION_DATE  = 
ORIGINATOR     = 

OBJECT_NAME    = SILVERSAT
OBJECT_ID      = 1998-067XV
CENTER_NAME    = EARTH
REF_FRAME      = TEME
TIME_SYSTEM    = UTC
MEAN_ELEMENT_THEORY = SGP/SGP4

EPOCH          = 2025-12-15T14:58:08.164704
MEAN_MOTION    = 15.52037636
ECCENTRICITY   = .00041166
INCLINATION    = 51.6296
RA_OF_ASC_NODE = 128.0480
ARG_OF_PERICENTER = 244.8670
MEAN_ANOMALY   = 115.1892

EPHEMERIS_TYPE = 0
CLASSIFICATION_TYPE = U
NORAD_CAT_ID   = 66909
ELEMENT_SET_NO = 999
REV_AT_EPOCH   = 206
BSTAR          = .79995468E-3
MEAN_MOTION_DOT = .48941E-3
MEAN_MOTION_DDOT = 0

CCSDS_OMM_VERS = 2.0
CREATION_DATE  = 
ORIGINATOR     = 

OBJECT_NAME    = 1998-067XW
OBJECT_ID      = 1998-067XW
CENTER_NAME    = EARTH
REF_FRAME      = TEME
TIME_SYSTEM    = UTC
MEAN_ELEMENT_THEORY = SGP/SGP4

EPOCH          = 2025-12-15T16:28:26.170464
MEAN_MOTION    = 15.52120253
ECCENTRICITY   = .00047674
INCLINATION    = 51.6293
RA_OF_ASC_NODE = 127.7170
ARG_OF_PERICENTER = 223.5527
MEAN_ANOMALY   = 136.5086

EPHEMERIS_TYPE = 0
CLASSIFICATION_TYPE = U
NORAD_CAT_ID   = 66910
ELEMENT_SET_NO = 999
REV_AT_EPOCH   = 207
BSTAR          = .72313444E-3
MEAN_MOTION_DOT = .44307E-3
MEAN_MOTION_DDOT = 0

CCSDS_OMM_VERS = 2.0
CREATION_DATE  = 
ORIGINATOR     = 

OBJECT_NAME    = 1998-067XX
OBJECT_ID      = 1998-067XX
CENTER_NAME    = EARTH
REF_FRAME      = TEME
TIME_SYSTEM    = UTC
MEAN_ELEMENT_THEORY = SGP/SGP4

EPOCH          = 2025-12-15T13:21:12.839040
MEAN_MOTION    = 15.52435494
ECCENTRICITY   = .00044725
INCLINATION    = 51.6293
RA_OF_ASC_NODE = 128.3487
ARG_OF_PERICENTER = 225.8375
MEAN_ANOMALY   = 134.2248

EPHEMERIS_TYPE = 0
CLASSIFICATION_TYPE = U
NORAD_CAT_ID   = 66911
ELEMENT_SET_NO = 999
REV_AT_EPOCH   = 204
BSTAR          = .85850941E-3
MEAN_MOTION_DOT = .53353E-3
MEAN_MOTION_DDOT = 0

CCSDS_OMM_VERS = 2.0
CREATION_DATE  = 
ORIGINATOR     = 

OBJECT_NAME    = 1998-067XY
OBJECT_ID      = 1998-067XY
CENTER_NAME    = EARTH
REF_FRAME      = TEME
TIME_SYSTEM    = UTC
MEAN_ELEMENT_THEORY = SGP/SGP4

EPOCH          = 2025-12-16T01:51:18.141984
MEAN_MOTION    = 15.51468873
ECCENTRICITY   = .00042589
INCLINATION    = 51.6299
RA_OF_ASC_NODE = 125.8265
ARG_OF_PERICENTER = 241.2877
MEAN_ANOMALY   = 118.7684

EPHEMERIS_TYPE = 0
CLASSIFICATION_TYPE = U
NORAD_CAT_ID   = 66912
ELEMENT_SET_NO = 999
REV_AT_EPOCH   = 212
BSTAR          = .68474677E-3
MEAN_MOTION_DOT = .40934E-3
MEAN_MOTION_DDOT = 0

